sat15369
1 15369U 84111A   20046.80288363  .00000355  00000-0  16437-4 0  9997
2 15369  82.5253 244.0038 0018828 117.5946 242.7202 15.16575794927986
